{
  "type": "FeatureCollection",
  "features": [
    {
      "type": "Feature",
      "properties": {
        "norad_id": 34492,
        "name": "IRIDIUM 33 DEB",
        "group": "iridium-33-debris",
        "lat": -84.95830980709464,
        "lon": -163.50458974941725,
        "alt_km": 721.8002136074037,
        "timestamp": "2025-12-18T23:35:49.447401+00:00",
        "meta_object_name": "IRIDIUM 33 DEB",
        "meta_object_id": "1997-051GH",
        "meta_epoch": "2025-12-18T09:36:31.167936",
        "meta_mean_motion": 14.25834729,
        "meta_eccentricity": 0.01887299,
        "meta_inclination": 86.4707,
        "meta_ra_of_asc_node": 332.3402,
        "meta_arg_of_pericenter": 219.7976,
        "meta_mean_anomaly": 295.0845,
        "meta_ephemeris_type": 0,
        "meta_classification_type": "U",
        "meta_norad_cat_id": 34492,
        "meta_element_set_no": 999,
        "meta_rev_at_epoch": 85139,
        "meta_bstar": 0.0028886567,
        "meta_mean_motion_dot": 8.305e-05,
        "meta_mean_motion_ddot": 0,
        "tle_line1": "1 34492U 97051GH  25352.40036074  .00008305  00000+0  28887-2 0  9995",
        "tle_line2": "2 34492  86.4707 332.3402 0188729 219.7976 295.0845 14.25834729851393"
      },
      "geometry": {
        "type": "Point",
        "coordinates": [
          -163.50458974941725,
          -84.95830980709464
        ]
      }
    },
    {
      "type": "Feature",
      "properties": {
        "norad_id": 34497,
        "name": "IRIDIUM 33 DEB",
        "group": "iridium-33-debris",
        "lat": -0.1807083169048764,
        "lon": -130.2540592435207,
        "alt_km": 845.6040833287079,
        "timestamp": "2025-12-18T23:35:49.447412+00:00",
        "meta_object_name": "IRIDIUM 33 DEB",
        "meta_object_id": "1997-051GN",
        "meta_epoch": "2025-12-18T04:30:11.149056",
        "meta_mean_motion": 14.27469284,
        "meta_eccentricity": 0.00783512,
        "meta_inclination": 86.2772,
        "meta_ra_of_asc_node": 50.074,
        "meta_arg_of_pericenter": 321.7487,
        "meta_mean_anomaly": 93.0567,
        "meta_ephemeris_type": 0,
        "meta_classification_type": "U",
        "meta_norad_cat_id": 34497,
        "meta_element_set_no": 999,
        "meta_rev_at_epoch": 86961,
        "meta_bstar": 0.00048701444,
        "meta_mean_motion_dot": 1.253e-05,
        "meta_mean_motion_ddot": 0,
        "tle_line1": "1 34497U 97051GN  25352.18762904  .00001253  00000+0  48701-3 0  9996",
        "tle_line2": "2 34497  86.2772  50.0740 0078351 321.7487  93.0567 14.27469284869610"
      },
      "geometry": {
        "type": "Point",
        "coordinates": [
          -130.2540592435207,
          -0.1807083169048764
        ]
      }
    },
    {
      "type": "Feature",
      "properties": {
        "norad_id": 34508,
        "name": "IRIDIUM 33 DEB",
        "group": "iridium-33-debris",
        "lat": -46.03250478832669,
        "lon": -76.23084206324768,
        "alt_km": 756.3786465724716,
        "timestamp": "2025-12-18T23:35:49.447422+00:00",
        "meta_object_name": "IRIDIUM 33 DEB",
        "meta_object_id": "1997-051GZ",
        "meta_epoch": "2025-12-18T14:12:24.154272",
        "meta_mean_motion": 14.38470921,
        "meta_eccentricity": 0.00664838,
        "meta_inclination": 86.3709,
        "meta_ra_of_asc_node": 100.1625,
        "meta_arg_of_pericenter": 154.1507,
        "meta_mean_anomaly": 206.3039,
        "meta_ephemeris_type": 0,
        "meta_classification_type": "U",
        "meta_norad_cat_id": 34508,
        "meta_element_set_no": 999,
        "meta_rev_at_epoch": 87393,
        "meta_bstar": 0.00092113634,
        "meta_mean_motion_dot": 2.904e-05,
        "meta_mean_motion_ddot": 0,
        "tle_line1": "1 34508U 97051GZ  25352.59194623  .00002904  00000+0  92114-3 0  9992",
        "tle_line2": "2 34508  86.3709 100.1625 0066483 154.1507 206.3039 14.38470921873932"
      },
      "geometry": {
        "type": "Point",
        "coordinates": [
          -76.23084206324768,
          -46.03250478832669
        ]
      }
    },
    {
      "type": "Feature",
      "properties": {
        "norad_id": 34521,
        "name": "IRIDIUM 33 DEB",
        "group": "iridium-33-debris",
        "lat": -62.72458171810791,
        "lon": -145.1462868259097,
        "alt_km": 688.5671262789829,
        "timestamp": "2025-12-18T23:35:49.447433+00:00",
        "meta_object_name": "IRIDIUM 33 DEB",
        "meta_object_id": "1997-051HN",
        "meta_epoch": "2025-12-18T14:17:06.631296",
        "meta_mean_motion": 14.63413961,
        "meta_eccentricity": 0.00022735,
        "meta_inclination": 86.3793,
        "meta_ra_of_asc_node": 27.9703,
        "meta_arg_of_pericenter": 187.5039,
        "meta_mean_anomaly": 172.6139,
        "meta_ephemeris_type": 0,
        "meta_classification_type": "U",
        "meta_norad_cat_id": 34521,
        "meta_element_set_no": 999,
        "meta_rev_at_epoch": 88558,
        "meta_bstar": 0.00060542288,
        "meta_mean_motion_dot": 3.152e-05,
        "meta_mean_motion_ddot": 0,
        "tle_line1": "1 34521U 97051HN  25352.59521564  .00003152  00000+0  60542-3 0  9991",
        "tle_line2": "2 34521  86.3793  27.9703 0002273 187.5039 172.6139 14.63413961885589"
      },
      "geometry": {
        "type": "Point",
        "coordinates": [
          -145.1462868259097,
          -62.72458171810791
        ]
      }
    },
    {
      "type": "Feature",
      "properties": {
        "norad_id": 34525,
        "name": "IRIDIUM 33 DEB",
        "group": "iridium-33-debris",
        "lat": -37.84534327922836,
        "lon": 41.35365790235749,
        "alt_km": 757.5643109229813,
        "timestamp": "2025-12-18T23:35:49.447443+00:00",
        "meta_object_name": "IRIDIUM 33 DEB",
        "meta_object_id": "1997-051HS",
        "meta_epoch": "2025-12-18T14:21:35.776800",
        "meta_mean_motion": 14.42919093,
        "meta_eccentricity": 0.00065257,
        "meta_inclination": 86.3723,
        "meta_ra_of_asc_node": 44.3432,
        "meta_arg_of_pericenter": 81.7438,
        "meta_mean_anomaly": 42.496,
        "meta_ephemeris_type": 0,
        "meta_classification_type": "U",
        "meta_norad_cat_id": 34525,
        "meta_element_set_no": 999,
        "meta_rev_at_epoch": 88172,
        "meta_bstar": 0.00026803165,
        "meta_mean_motion_dot": 9.15e-06,
        "meta_mean_motion_ddot": 0,
        "tle_line1": "1 34525U 97051HS  25352.59833075  .00000915  00000+0  26803-3 0  9994",
        "tle_line2": "2 34525  86.3723  44.3432 0006525  81.7438  42.4960 14.42919093881722"
      },
      "geometry": {
        "type": "Point",
        "coordinates": [
          41.35365790235749,
          -37.84534327922836
        ]
      }
    },
    {
      "type": "Feature",
      "properties": {
        "norad_id": 34529,
        "name": "IRIDIUM 33 DEB",
        "group": "iridium-33-debris",
        "lat": 14.332886788887468,
        "lon": -148.18081088739706,
        "alt_km": 753.5635217691761,
        "timestamp": "2025-12-18T23:35:49.447453+00:00",
        "meta_object_name": "IRIDIUM 33 DEB",
        "meta_object_id": "1997-051HW",
        "meta_epoch": "2025-12-18T14:29:46.495968",
        "meta_mean_motion": 14.40620248,
        "meta_eccentricity": 0.00055161,
        "meta_inclination": 86.3637,
        "meta_ra_of_asc_node": 32.9118,
        "meta_arg_of_pericenter": 159.4672,
        "meta_mean_anomaly": 200.675,
        "meta_ephemeris_type": 0,
        "meta_classification_type": "U",
        "meta_norad_cat_id": 34529,
        "meta_element_set_no": 999,
        "meta_rev_at_epoch": 88226,
        "meta_bstar": 8.9957173e-05,
        "meta_mean_motion_dot": 3.07e-06,
        "meta_mean_motion_ddot": 0,
        "tle_line1": "1 34529U 97051HW  25352.60401037  .00000307  00000+0  89957-4 0  9994",
        "tle_line2": "2 34529  86.3637  32.9118 0005516 159.4672 200.6750 14.40620248882260"
      },
      "geometry": {
        "type": "Point",
        "coordinates": [
          -148.18081088739706,
          14.332886788887468
        ]
      }
    },
    {
      "type": "Feature",
      "properties": {
        "norad_id": 34538,
        "name": "IRIDIUM 33 DEB",
        "group": "iridium-33-debris",
        "lat": 48.7632169283506,
        "lon": 7.081892342924167,
        "alt_km": 750.1943323221494,
        "timestamp": "2025-12-18T23:35:49.447464+00:00",
        "meta_object_name": "IRIDIUM 33 DEB",
        "meta_object_id": "1997-051JF",
        "meta_epoch": "2025-12-18T12:26:15.755424",
        "meta_mean_motion": 14.42681675,
        "meta_eccentricity": 0.00322881,
        "meta_inclination": 86.2766,
        "meta_ra_of_asc_node": 3.0251,
        "meta_arg_of_pericenter": 308.143,
        "meta_mean_anomaly": 207.0938,
        "meta_ephemeris_type": 0,
        "meta_classification_type": "U",
        "meta_norad_cat_id": 34538,
        "meta_element_set_no": 999,
        "meta_rev_at_epoch": 87839,
        "meta_bstar": 0.0007613525,
        "meta_mean_motion_dot": 2.566e-05,
        "meta_mean_motion_ddot": 0,
        "tle_line1": "1 34538U 97051JF  25352.51823791  .00002566  00000+0  76135-3 0  9991",
        "tle_line2": "2 34538  86.2766   3.0251 0032288 308.1430 207.0938 14.42681675878391"
      },
      "geometry": {
        "type": "Point",
        "coordinates": [
          7.081892342924167,
          48.7632169283506
        ]
      }
    }
  ]
}